NORAD_CAT_ID,OBJECT_NAME,OBJECT_TYPE,EPOCH,MEAN_MOTION,ECCENTRICITY,INCLINATION,RA_OF_ASC_NODE,ARG_OF_PERICENTER,MEAN_ANOMALY,BSTAR,MEAN_MOTION_DOT,MEAN_MOTION_DDOT,TLE_LINE0,TLE_LINE1,TLE_LINE2,SEMIMAJOR_AXIS,PERIOD,APOGEE,PERIGEE,DECAYED
52106.0,STARLINK-3670,PAYLOAD,2022-08-14 06:00:02,15.08835758,0.0001819,53.2175,180.4831,59.2048,326.5773,-0.00077436,-0.0001259,0.0,0 STARLINK-3670,1 52106U 22029U   22226.25002315 -.00012590  00000-0 -77436-3 0  9990,2 52106  53.2175 180.4831 0001819  59.2048 326.5773 15.08835758 23874,6917.893,95.438,541.0169999999998,538.5,0.0
52106.0,STARLINK-3670,PAYLOAD,2022-08-14 14:00:01,15.088522,0.0001712,53.2169,178.9849,64.0331,333.2802,-0.0012532,-0.00020184,0.0,0 STARLINK-3670,1 52106U 22029U   22226.58334491 -.00020184  00000-0 -12532-2 0  9992,2 52106  53.2169 178.9849 0001712  64.0331 333.2802 15.08852200  1302,6917.843000000003,95.437,540.8919999999998,538.524,0.0
52106.0,STARLINK-3670,PAYLOAD,2022-08-14 22:00:00,15.08856968,0.0001659,53.2169,177.4885,68.1886,340.722,-0.0023604,-0.00037675,0.0,0 STARLINK-3670,1 52106U 22029U   22226.91667824 -.00037675  00000-0 -23604-2 0  9993,2 52106  53.2169 177.4885 0001659  68.1886 340.7220 15.08856968 23975,6917.829000000002,95.436,540.841,538.5459999999998,0.0
52106.0,STARLINK-3670,PAYLOAD,2022-08-15 14:00:01,15.08834133,0.0001662,53.2165,174.4961,64.6367,7.4488,-0.00071385,-0.00011629,0.0,0 STARLINK-3670,1 52106U 22029U   22227.58334491 -.00011629  00000-0 -71385-3 0  9999,2 52106  53.2165 174.4961 0001662  64.6367   7.4488 15.08834133 24077,6917.898,95.438,540.913,538.614,0.0
52106.0,STARLINK-3670,PAYLOAD,2022-08-15 22:00:00,15.08848352,0.0001693,53.2164,172.9997,68.4272,15.2406,-0.00033848,-5.672e-05,0.0,0 STARLINK-3670,1 52106U 22029U   22227.91667824 -.00005672  00000-0 -33848-3 0  9998,2 52106  53.2164 172.9997 0001693  68.4272  15.2406 15.08848352  1305,6917.855,95.437,540.891,538.549,0.0
52106.0,STARLINK-3670,PAYLOAD,2022-08-16 06:00:02,15.08829378,0.000177,53.2164,171.505,60.5743,34.7635,0.0016410999999999,0.00025919,0.0,0 STARLINK-3670,1 52106U 22029U   22228.25002315  .00025919  00000-0  16411-2 0  9994,2 52106  53.2164 171.5050 0001770  60.5743  34.7635 15.08829378 24179,6917.913000000001,95.438,541.002,538.553,0.0
52106.0,STARLINK-3670,PAYLOAD,2022-08-16 14:00:01,15.08836359,0.000162,53.2163,170.007,64.3496,42.5252,-0.0014705999999999,-0.00023614,0.0,0 STARLINK-3670,1 52106U 22029U   22228.58334491 -.00023614  00000-0 -14706-2 0  9990,2 52106  53.2163 170.0070 0001620  64.3496  42.5252 15.08836359  1304,6917.892,95.438,540.877,538.636,0.0
52106.0,STARLINK-3670,PAYLOAD,2022-08-16 22:00:00,15.08842872,0.0001666999999999,53.2162,168.5107,66.8696,51.5838,-0.00056972,-9.344e-05,0.0,0 STARLINK-3670,1 52106U 22029U   22228.91667824 -.00009344  00000-0 -56972-3 0  9992,2 52106  53.2162 168.5107 0001667  66.8696  51.5838 15.08842872  1303,6917.871999999999,95.437,540.89,538.5830000000002,0.0
52106.0,STARLINK-3670,PAYLOAD,2022-08-17 16:00:00,15.08835916,0.0001595999999999,53.2163,165.1433,65.4585,169.0828,-0.00043462,-7.198e-05,0.0,0 STARLINK-3670,1 52106U 22029U   22229.66667824 -.00007198  00000-0 -43462-3 0  9990,2 52106  53.2163 165.1433 0001596  65.4585 169.0828 15.08835916  1307,6917.893,95.438,540.862,538.654,0.0
52106.0,STARLINK-3670,PAYLOAD,2022-08-18 14:00:01,15.08846026,0.0001601,53.2165,161.0288,63.1541,113.2281,0.0015609999999999,0.00024647,0.0,0 STARLINK-3670,1 52106U 22029U   22230.58334491  .00024647  00000-0  15610-2 0  9993,2 52106  53.2165 161.0288 0001601  63.1541 113.2281 15.08846026  1304,6917.861999999999,95.437,540.835,538.619,0.0
52106.0,STARLINK-3670,PAYLOAD,2022-08-18 22:00:00,15.08892366,0.0001626,53.2167,159.5326,64.578,123.4058,-0.0039448,-0.00062614,0.0,0 STARLINK-3670,1 52106U 22029U   22230.91667824 -.00062614  00000-0 -39448-2 0  9992,2 52106  53.2167 159.5326 0001626  64.5780 123.4058 15.08892366  1301,6917.72,95.434,540.71,538.461,0.0
52106.0,STARLINK-3670,PAYLOAD,2022-08-19 04:00:01,15.0884353,0.0001659,53.2166,158.4115,57.5271,49.2528,-0.00038349,-6.387e-05,0.0,0 STARLINK-3670,1 52106U 22029U   22231.16668981 -.00006387  00000-0 -38349-3 0  9990,2 52106  53.2166 158.4115 0001659  57.5271  49.2528 15.08843530 24612,6917.87,95.437,540.882,538.587,0.0
52106.0,STARLINK-3670,PAYLOAD,2022-08-19 14:00:01,15.08816145,0.0001436,53.2167,156.5394,60.0569,151.1627,0.0018648,0.00029496,0.0,0 STARLINK-3670,1 52106U 22029U   22231.58334491  .00029496  00000-0  18648-2 0  9995,2 52106  53.2167 156.5394 0001436  60.0569 151.1627 15.08816145  1309,6917.953,95.439,540.812,538.825,0.0
52106.0,STARLINK-3670,PAYLOAD,2022-08-19 22:00:00,15.08859199,0.0001463,53.2169,155.0437,61.0564,161.7283,-0.0033103,-0.00052614,0.0,0 STARLINK-3670,1 52106U 22029U   22231.91667824 -.00052614  00000-0 -33103-2 0  9994,2 52106  53.2169 155.0437 0001463  61.0564 161.7283 15.08859199  1300,6917.821999999999,95.436,540.6990000000002,538.675,0.0
52106.0,STARLINK-3670,PAYLOAD,2022-08-20 06:00:00,15.08795804,0.000151,53.2167,153.5484,51.4402,182.9441,0.0026851999999999,0.00042654,0.0,0 STARLINK-3670,1 52106U 22029U   22232.25001157  .00042654  00000-0  26852-2 0  9997,2 52106  53.2167 153.5484 0001510  51.4402 182.9441 15.08795804 24779,6918.015,95.44,540.925,538.836,0.0
52106.0,STARLINK-3670,PAYLOAD,2022-08-20 14:00:01,15.08807385,0.0001343,53.2168,152.0504,59.1001,186.8568,0.0022179,0.00035155,0.0,0 STARLINK-3670,1 52106U 22029U   22232.58334491  .00035155  00000-0  22179-2 0  9999,2 52106  53.2168 152.0504 0001343  59.1001 186.8568 15.08807385  1306,6917.98,95.44,540.774,538.9159999999998,0.0
52106.0,STARLINK-3670,PAYLOAD,2022-08-20 22:00:00,15.08843926,0.0001412,53.2169,150.5549,59.8189,197.7013,-0.0012137,-0.00019554,0.0,0 STARLINK-3670,1 52106U 22029U   22232.91667824 -.00019554  00000-0 -12137-2 0  9995,2 52106  53.2169 150.5549 0001412  59.8189 197.7013 15.08843926 24874,6917.868,95.437,540.71,538.757,0.0
52106.0,STARLINK-3670,PAYLOAD,2022-08-21 14:00:01,15.08807841,0.0001450999999999,53.2167,147.5615,63.4112,217.2974,0.0011505,0.00018053,0.0,0 STARLINK-3670,1 52106U 22029U   22233.58334491  .00018053  00000-0  11505-2 0  9999,2 52106  53.2167 147.5615 0001451  63.4112 217.2974 15.08807841  1305,6917.979,95.44,540.847,538.84,0.0
52106.0,STARLINK-3670,PAYLOAD,2022-08-21 22:00:00,15.08832987,0.000155,53.2168,146.0661,63.8122,228.4541,-0.0014345999999999,-0.00023043,0.0,0 STARLINK-3670,1 52106U 22029U   22233.91667824 -.00023043  00000-0 -14346-2 0  9998,2 52106  53.2168 146.0661 0001550  63.8122 228.4541 15.08832987 25024,6917.901999999999,95.438,540.839,538.695,0.0
52106.0,STARLINK-3670,PAYLOAD,2022-08-22 12:00:00,15.08825652,0.0001535,53.2166,143.4471,64.188,158.335,-4.3303e-05,-9.77e-06,0.0,0 STARLINK-3670,1 52106U 22029U   22234.50001157 -.00000977  00000-0 -43303-4 0  9993,2 52106  53.2166 143.4471 0001535  64.1880 158.3350 15.08825652 25110,6917.924,95.438,540.851,538.727,0.0
52106.0,STARLINK-3670,PAYLOAD,2022-08-22 22:00:00,15.0884676,0.0001610999999999,53.2166,141.5775,65.0482,261.9446,-0.0015653,-0.00025118,0.0,0 STARLINK-3670,1 52106U 22029U   22234.91667824 -.00025118  00000-0 -15653-2 0  9996,2 52106  53.2166 141.5775 0001611  65.0482 261.9446 15.08846760  1304,6917.86,95.437,540.839,538.61,0.0
52106.0,STARLINK-3670,PAYLOAD,2022-08-23 14:00:01,15.08813203,0.0001585,53.2163,138.5839,67.7954,282.3825,0.0029104,0.00046302,0.0,0 STARLINK-3670,1 52106U 22029U   22235.58334491  .00046302  00000-0  29104-2 0  9993,2 52106  53.2163 138.5839 0001585  67.7954 282.3825 15.08813203  1305,6917.962,95.439,540.924,538.731,0.0
52106.0,STARLINK-3670,PAYLOAD,2022-08-23 22:00:01,15.08856711,0.0001703,53.2165,137.0887,65.3274,296.4953,-0.0016535999999999,-0.00026521,0.0,0 STARLINK-3670,1 52106U 22029U   22235.91668981 -.00026521  00000-0 -16536-2 0  9992,2 52106  53.2165 137.0887 0001703  65.3274 296.4953 15.08856711 25333,6917.829000000002,95.436,540.872,538.516,0.0
52106.0,STARLINK-3670,PAYLOAD,2022-08-24 14:00:01,15.08824016,0.0001661,53.2166,134.0949,68.1638,316.8076,0.0030406,0.00048415,0.0,0 STARLINK-3670,1 52106U 22029U   22236.58334491  .00048415  00000-0  30406-2 0  9998,2 52106  53.2166 134.0949 0001661  68.1638 316.8076 15.08824016 25435,6917.929,95.439,540.943,538.645,0.0
52106.0,STARLINK-3670,PAYLOAD,2022-08-24 22:00:00,15.08866677,0.0001797,53.2168,132.5999,65.1566,331.4098,-0.0016844999999999,-0.00027017,0.0,0 STARLINK-3670,1 52106U 22029U   22236.91667824 -.00027017  00000-0 -16845-2 0  9992,2 52106  53.2168 132.5999 0001797  65.1566 331.4098 15.08866677  1308,6917.799,95.436,540.9069999999998,538.4209999999998,0.0
52106.0,STARLINK-3670,PAYLOAD,2022-08-25 06:00:02,15.08868363,0.0001788,53.2167,131.1039,59.5569,348.6849,-0.0021469,-0.00034321,0.0,0 STARLINK-3670,1 52106U 22029U   22237.25002315 -.00034321  00000-0 -21469-2 0  9992,2 52106  53.2167 131.1039 0001788  59.5569 348.6849 15.08868363 25536,6917.794,95.436,540.896,538.422,0.0
52106.0,STARLINK-3670,PAYLOAD,2022-08-25 14:00:01,15.08811596,0.0001636999999999,53.217,129.6058,66.9017,352.9044,0.0030594999999999,0.00048703,0.0,0 STARLINK-3670,1 52106U 22029U   22237.58334491  .00048703  00000-0  30595-2 0  9998,2 52106  53.2170 129.6058 0001637  66.9017 352.9044 15.08811596  1306,6917.967,95.439,540.965,538.7,0.0
52106.0,STARLINK-3670,PAYLOAD,2022-08-25 22:00:00,15.08851931,0.0001796,53.2171,128.111,63.5396,7.8401,-0.0016006,-0.0002568,0.0,0 STARLINK-3670,1 52106U 22029U   22237.91667824 -.00025680  00000-0 -16006-2 0  9996,2 52106  53.2171 128.1110 0001796  63.5396   7.8401 15.08851931  1309,6917.844,95.437,540.951,538.466,0.0
52106.0,STARLINK-3670,PAYLOAD,2022-08-26 06:00:00,15.08846793,0.0001816,53.2171,126.6149,59.74,23.2346,3.1019e-05,2.06e-06,0.0,0 STARLINK-3670,1 52106U 22029U   22238.25001157  .00000206  00000-0  31019-4 0  9993,2 52106  53.2171 126.6149 0001816  59.7400  23.2346 15.08846793 25687,6917.86,95.437,540.981,538.4680000000002,0.0
